[{"OBJECT_NAME":"STARLINK-30983","OBJECT_ID":"2023-191G","EPOCH":"2026-03-09T12:03:45.783936","MEAN_MOTION":15.26724672,"ECCENTRICITY":7.758e-5,"INCLINATION":42.9994,"RA_OF_ASC_NODE":104.4084,"ARG_OF_PERICENTER":285.9058,"MEAN_ANOMALY":74.1707,"EPHEMERIS_TYPE":0,"CLASSIFICATION_TYPE":"U","NORAD_CAT_ID":58514,"ELEMENT_SET_NO":999,"REV_AT_EPOCH":12509,"BSTAR":0.00033680034,"MEAN_MOTION_DOT":8.781e-5,"MEAN_MOTION_DDOT":0},{"OBJECT_NAME":"TRANSPORTER-12 OBJECT BA","OBJECT_ID":"2025-009BA","EPOCH":"2026-03-09T16:49:42.568896","MEAN_MOTION":15.27214003,"ECCENTRICITY":4.03e-5,"INCLINATION":97.3985,"RA_OF_ASC_NODE":151.139,"ARG_OF_PERICENTER":234.6623,"MEAN_ANOMALY":125.4579,"EPHEMERIS_TYPE":0,"CLASSIFICATION_TYPE":"U","NORAD_CAT_ID":62657,"ELEMENT_SET_NO":999,"REV_AT_EPOCH":6373,"BSTAR":0.00042732654,"MEAN_MOTION_DOT":0.0001133,"MEAN_MOTION_DDOT":0}]
